[Satellite]
VERSION=1.1
NAME=SL-14 R/B
NICKNAME=SL-14 R/B
TLE1=1 17567U 87024B   17186.12759829  .00000084  00000-0  73081-5 0  9999
TLE2=2 17567  82.5281 182.2390 0017687 288.6769  71.2526 14.83657510618046
